{
    "links": {
        "self": "http://www.neowsapp.com/rest/v1/neo/3789426?api_key=iIulBulltgU6a56xZRHN4H3l9WmuAYTsLGpBGhQ2"
    },
    "id": "3789426",
    "neo_reference_id": "3789426",
    "name": "(2017 VA15)",
    "designation": "2017 VA15",
    "nasa_jpl_url": "http://ssd.jpl.nasa.gov/sbdb.cgi?sstr=3789426",
    "absolute_magnitude_h": 25.1,
    "estimated_diameter": {
        "kilometers": {
            "estimated_diameter_min": 0.0253837029,
            "estimated_diameter_max": 0.0567596853
        },
        "meters": {
            "estimated_diameter_min": 25.3837029364,
            "estimated_diameter_max": 56.7596852866
        },
        "miles": {
            "estimated_diameter_min": 0.0157726969,
            "estimated_diameter_max": 0.0352688224
        },
        "feet": {
            "estimated_diameter_min": 83.279867942,
            "estimated_diameter_max": 186.2194458756
        }
    },
    "is_potentially_hazardous_asteroid": false,
    "close_approach_data": [
        {
            "close_approach_date": "1981-10-08",
            "close_approach_date_full": "1981-Oct-08 16:45",
            "epoch_date_close_approach": 371407500000,
            "relative_velocity": {
                "kilometers_per_second": "17.9097159309",
                "kilometers_per_hour": "64474.9773512364",
                "miles_per_hour": "40062.243565828"
            },
            "miss_distance": {
                "astronomical": "0.3739429144",
                "lunar": "145.4637937016",
                "kilometers": "55941063.495832328",
                "miles": "34760165.0060410064"
            },
            "orbiting_body": "Earth"
        },
        {
            "close_approach_date": "2009-05-11",
            "close_approach_date_full": "2009-May-11 12:14",
            "epoch_date_close_approach": 1242044040000,
            "relative_velocity": {
                "kilometers_per_second": "13.024832454",
                "kilometers_per_hour": "46889.3968345649",
                "miles_per_hour": "29135.2477164551"
            },
            "miss_distance": {
                "astronomical": "0.0361469377",
                "lunar": "14.0611587653",
                "kilometers": "5407504.886942699",
                "miles": "3360067.7283352862"
            },
            "orbiting_body": "Mars"
        },
        {
            "close_approach_date": "2017-11-22",
            "close_approach_date_full": "2017-Nov-22 15:58",
            "epoch_date_close_approach": 1511366280000,
            "relative_velocity": {
                "kilometers_per_second": "6.4318872916",
                "kilometers_per_hour": "23154.7942497934",
                "miles_per_hour": "14387.4886826008"
            },
            "miss_distance": {
                "astronomical": "0.0206661556",
                "lunar": "8.0391345284",
                "kilometers": "3091612.858848572",
                "miles": "1921039.1507194136"
            },
            "orbiting_body": "Earth"
        },
        {
            "close_approach_date": "2029-01-24",
            "close_approach_date_full": "2029-Jan-24 06:27",
            "epoch_date_close_approach": 1863930420000,
            "relative_velocity": {
                "kilometers_per_second": "18.5860988165",
                "kilometers_per_hour": "66909.9557393464",
                "miles_per_hour": "41575.2444425955"
            },
            "miss_distance": {
                "astronomical": "0.396898976",
                "lunar": "154.393701664",
                "kilometers": "59375241.41478112",
                "miles": "36894064.214654656"
            },
            "orbiting_body": "Earth"
        }
    ],
    "orbital_data": {
        "orbit_id": "9",
        "orbit_determination_date": "2018-02-10 07:09:23",
        "first_observation_date": "2017-10-22",
        "last_observation_date": "2017-11-27",
        "data_arc_in_days": 36,
        "observations_used": 101,
        "orbit_uncertainty": "7",
        "minimum_orbit_intersection": ".0200564",
        "jupiter_tisserand_invariant": "3.711",
        "epoch_osculation": "2459000.5",
        "eccentricity": ".4919052026996252",
        "semi_major_axis": "1.971507532138323",
        "inclination": "1.925915889644672",
        "ascending_node_longitude": "47.35754460309035",
        "orbital_period": "1011.10460375385",
        "perihelion_distance": "1.001712719917983",
        "perihelion_argument": "23.82008498794501",
        "aphelion_distance": "2.941302344358663",
        "perihelion_time": "2459101.427052899757",
        "mean_anomaly": "324.0653015434615",
        "mean_motion": ".3560462475034292",
        "equinox": "J2000",
        "orbit_class": {
            "orbit_class_type": "APO",
            "orbit_class_description": "Near-Earth asteroid orbits which cross the Earth’s orbit similar to that of 1862 Apollo",
            "orbit_class_range": "a (semi-major axis) > 1.0 AU; q (perihelion) < 1.017 AU"
        }
    },
    "is_sentry_object": false
}